OBJECT_NAME,OBJECT_ID,EPOCH,MEAN_MOTION,ECCENTRICITY,INCLINATION,RA_OF_ASC_NODE,ARG_OF_PERICENTER,MEAN_ANOMALY,EPHEMERIS_TYPE,CLASSIFICATION_TYPE,NORAD_CAT_ID,ELEMENT_SET_NO,REV_AT_EPOCH,BSTAR,MEAN_MOTION_DOT,MEAN_MOTION_DDOT
CUTE-1 (CO-55),2003-031E,2026-07-17T22:42:23.359680,14.24352549,.00108632,98.6744,207.1188,95.5982,264.6436,0,U,27844,999,19605,.75281132E-4,.13E-5,0
CUBESAT XI-IV (CO-57),2003-031J,2026-07-17T22:48:02.109024,14.23635431,.00106323,98.6776,206.8106,112.1739,248.0569,0,U,27848,999,19575,.66203101E-4,.107E-5,0
CUBESAT XI-V,2005-043F,2026-07-16T23:00:13.929984,14.72704810,.0015312,98.3017,354.2118,110.0551,250.2305,0,U,28895,999,10613,.10709E-3,.631E-5,0
CUTE-1.7+APD II (CO-65),2008-021C,2026-07-17T22:31:22.761696,15.09714947,.00068495,97.8298,181.0062,288.2126,71.8356,0,U,32785,999,98983,.13738606E-3,.2148E-4,0
CANX-2,2008-021H,2026-07-17T22:10:14.808000,15.05814042,.0008694,97.8658,179.3065,307.2234,52.8198,0,U,32790,999,98943,.98698292E-4,.1366E-4,0
SEEDS II (CO-66),2008-021J,2026-07-17T22:32:29.035680,15.33723545,.00033811,97.7530,198.3304,150.6464,209.4968,0,U,32791,999,99200,.32083578E-3,.10382E-3,0
SWISSCUBE,2009-051B,2026-07-17T16:22:26.527872,14.62533257,.00079463,98.4004,107.0987,112.4041,247.8002,0,U,35932,999,89361,.95101173E-4,.433E-5,0
BEESAT-1,2009-051C,2026-07-17T16:59:00.359520,14.61763986,.00062406,98.3931,106.6958,123.4432,236.7366,0,U,35933,999,89364,.80630624E-4,.353E-5,0
ITUPSAT1,2009-051E,2026-07-17T04:15:10.956960,14.60480346,.00082048,98.4015,105.3171,137.6090,222.5745,0,U,35935,999,89311,.79458509E-4,.337E-5,0
TISAT 1,2010-035E,2026-07-17T19:26:04.833024,15.32792576,.00046593,98.0716,148.1049,115.0155,245.1569,0,U,36799,999,87239,.35591786E-3,.11191E-3,0
STRAND-1,2013-009E,2026-07-17T11:31:59.747232,14.37179617,.0009516,98.3936,17.9715,134.8937,225.3024,0,U,39090,999,70141,.50178E-4,.107E-5,0
BRITE-AUSTRIA,2013-009F,2026-07-17T18:50:39.992640,14.36553072,.00109061,98.4011,17.4659,143.4124,216.7810,0,U,39091,999,70144,.34435987E-4,.59E-6,0
NEE-01 PEGASO,2013-018B,2026-07-17T21:05:30.609600,14.93796575,.00136255,98.1261,344.0523,66.4608,293.8041,0,U,39151,999,71528,.14325628E-3,.146E-4,0
POPACS 2,2013-055E,2026-07-17T11:57:11.860416,14.92080506,.041473,80.9912,109.4836,96.4949,268.3649,0,U,39269,999,66773,.23743E-3,.1457E-3,-.92442E-6
POPACS 3,2013-055F,2026-07-17T23:09:31.788000,14.56706423,.05484156,81.0003,195.7978,336.2170,21.4518,0,U,39270,999,64303,.1870051E-3,.7864E-4,0
ZACUBE-1 (TSHEPISOSAT),2013-066B,2026-07-17T20:48:51.576768,15.01335799,.00440515,97.8005,161.3542,146.6146,213.7870,0,U,39417,999,68533,.10037859E-3,.1255E-4,0
WNISAT-1,2013-066H,2026-07-17T21:16:33.320064,14.58123458,.01640229,97.7239,345.8695,134.8849,226.5805,0,U,39423,999,67120,.11135629E-3,.569E-5,0
TRITON-1,2013-066M,2026-07-17T22:53:43.720800,14.81799958,.00907801,97.8223,108.0582,133.2295,227.6544,0,U,39427,999,67864,.84538753E-4,.66E-5,0
GOMX-1,2013-066Q,2026-07-17T19:50:25.113120,14.69546025,.01280092,97.6462,37.3556,339.7357,19.8795,0,U,39430,999,67441,.99362775E-4,.615E-5,0
CUBEBUG-2 (LO-74),2013-066AA,2026-07-17T19:22:29.515584,14.93977366,.0055605,97.8919,147.9224,286.5269,72.9846,0,U,39440,999,68156,.18255845E-3,.1941E-4,0
NEE-02 KRYSAOR,2013-066AB,2026-07-17T07:03:47.947680,14.86744048,.0065226,97.8897,137.2978,332.3487,27.4265,0,U,39441,999,68067,.12208E-3,.1069E-4,0
FUNCUBE-1 (AO-73),2013-066AE,2026-07-17T21:03:23.146272,15.09839207,.00379436,97.8295,170.9747,98.9940,261.5586,0,U,39444,999,68429,.2737156E-3,.4433E-4,0
UWE-3,2013-066AG,2026-07-17T19:50:06.876672,14.97209607,.0047603,97.8719,155.1139,215.4548,144.3506,0,U,39446,999,68216,.17707243E-3,.2032E-4,0
BRITE-CA1 (TORONTO),2014-033L,2026-07-17T21:13:21.803232,14.72725699,.00786579,97.9775,327.2528,177.6498,182.5095,0,U,40020,999,64673,.86054124E-4,.523E-5,0
DUCHIFAT-1,2014-033M,2026-07-17T21:48:25.524000,15.71547527,.00030926,98.0416,262.5554,233.4347,126.6630,0,U,40021,999,66056,.78804438E-3,.10179E-2,0
NANOSATC-BR1,2014-033Q,2026-07-17T01:20:30.963552,15.32365382,.0005253,98.0704,233.1102,91.9307,268.2534,0,U,40024,999,65855,.32893482E-3,.10197E-3,0
QB50P1,2014-033R,2026-07-17T20:35:09.895488,15.18689290,.00104835,98.0967,212.1646,116.9790,243.2514,0,U,40025,999,65768,.22225613E-3,.4537E-4,0
QB50P2,2014-033Y,2026-07-17T22:29:39.250176,15.15528215,.00092438,98.0766,197.7424,76.1701,284.0558,0,U,40032,999,65732,.21789873E-3,.4058E-4,0
PERSEUS-M2,2014-033AD,2026-07-17T21:45:49.077792,14.95592580,.00110404,97.9987,150.0782,190.2026,169.8972,0,U,40037,999,65537,.20071461E-4,.162E-5,0
PERSEUS-M1,2014-033AF,2026-07-17T19:26:58.845984,14.95720896,.0011082,97.9655,143.4486,187.5643,172.5412,0,U,40039,999,65521,.71302847E-4,.734E-5,0
